YAOGAN-43 01G           
1 60464U 24148G   26068.44348481  .00010133  00000+0  35873-3 0  9993
2 60464  35.0006  62.0013 0007382 306.3543  53.6492 15.28332833 87004
STARLINK-35184          
1 65506U 25198Q   26068.87986465  .00029392  00000+0  10004-2 0  9993
2 65506  53.1599 269.7990 0001129  71.2330 288.8793 15.30206003 28653
